NORAD_CAT_ID,OBJECT_NAME,OBJECT_TYPE,EPOCH,MEAN_MOTION,ECCENTRICITY,INCLINATION,RA_OF_ASC_NODE,ARG_OF_PERICENTER,MEAN_ANOMALY,BSTAR,MEAN_MOTION_DOT,MEAN_MOTION_DDOT,TLE_LINE0,TLE_LINE1,TLE_LINE2,SEMIMAJOR_AXIS,PERIOD,APOGEE,PERIGEE,DECAYED
52878.0,STARLINK-4171,PAYLOAD,2022-08-15 22:00:00,15.73216598,0.0003268,53.215,110.9222,11.7011,219.0692,-6.627199999999999e-05,-9.923e-05,0.0,0 STARLINK-4171,1 52878U 22062BA  22227.91667824 -.00009923  00000-0 -66272-4 0  9992,2 52878  53.2150 110.9222 0003268  11.7011 219.0692 15.73216598  1305,6727.848000000001,91.532,351.912,347.514,0.0
52878.0,STARLINK-4171,PAYLOAD,2022-08-16 00:00:00,15.73226421,0.0003331999999999,53.2151,110.5101,11.3799,331.6238,-0.00025085,-0.0003573,0.0,0 STARLINK-4171,1 52878U 22062BA  22228.00001157 -.00035730  00000-0 -25085-3 0  9995,2 52878  53.2151 110.5101 0003332  11.3799 331.6238 15.73226421  9861,6727.82,91.532,351.927,347.4430000000001,0.0
52878.0,STARLINK-4171,PAYLOAD,2022-08-16 06:00:02,15.73252721,0.0003307,53.2147,109.2719,9.1887,310.6063,-0.00052631,-0.00074032,0.0,0 STARLINK-4171,1 52878U 22062BA  22228.25002315 -.00074032  00000-0 -52631-3 0  9994,2 52878  53.2147 109.2719 0003307   9.1887 310.6063 15.73252721  9901,6727.745,91.53,351.835,347.385,0.0
52878.0,STARLINK-4171,PAYLOAD,2022-08-16 14:00:01,15.731856,0.0003026,53.2146,107.6211,8.6161,40.0793,0.0006117,0.00086072,0.0,0 STARLINK-4171,1 52878U 22062BA  22228.58334491  .00086072  00000-0  61170-3 0  9996,2 52878  53.2146 107.6211 0003026   8.6161  40.0793 15.73185600  1307,6727.936,91.534,351.837,347.765,0.0
52878.0,STARLINK-4171,PAYLOAD,2022-08-16 22:00:00,15.73264138,0.000323,53.2147,105.9732,6.3729,131.2699,-0.00069737,-0.00097666,0.0,0 STARLINK-4171,1 52878U 22062BA  22228.91667824 -.00097666  00000-0 -69737-3 0  9992,2 52878  53.2147 105.9732 0003230   6.3729 131.2699 15.73264138 10008,6727.712,91.529,351.75,347.404,0.0
52878.0,STARLINK-4171,PAYLOAD,2022-08-17 14:00:01,15.72935134,0.0003378,53.2166,102.6679,14.533,301.0362,0.0027765,0.00403792,0.0,0 STARLINK-4171,1 52878U 22062BA  22229.58334491  .00403792  00000-0  27765-2 0  9990,2 52878  53.2166 102.6679 0003378  14.5330 301.0362 15.72935134  1302,6728.65,91.549,352.788,348.242,0.0
52878.0,STARLINK-4171,PAYLOAD,2022-08-18 14:00:01,15.73214927,0.0003053,53.2152,97.7233,8.4302,213.9486,0.00034858,0.00048623,0.0,0 STARLINK-4171,1 52878U 22062BA  22230.58334491  .00048623  00000-0  34858-3 0  9992,2 52878  53.2152  97.7233 0003053   8.4302 213.9486 15.73214927  1307,6727.853,91.532,351.772,347.664,0.0
52878.0,STARLINK-4171,PAYLOAD,2022-08-18 22:00:00,15.73239704,0.0003318,53.2152,96.0758,9.8889,301.4623,-0.00055167,-0.00077495,0.0,0 STARLINK-4171,1 52878U 22062BA  22230.91667824 -.00077495  00000-0 -55167-3 0  9995,2 52878  53.2152  96.0758 0003318   9.8889 301.4623 15.73239704  1306,6727.781999999997,91.531,351.879,347.415,0.0
52878.0,STARLINK-4171,PAYLOAD,2022-08-19 14:00:01,15.73121735,0.000317,53.2157,92.7747,13.5312,115.6696,0.00058027,0.00081349,0.0,0 STARLINK-4171,1 52878U 22062BA  22231.58334491  .00081349  00000-0  58027-3 0  9999,2 52878  53.2157  92.7747 0003170  13.5312 115.6696 15.73121735  1300,6728.118,91.538,352.116,347.851,0.0
52878.0,STARLINK-4171,PAYLOAD,2022-08-19 16:00:00,15.73149831,0.000319,53.2159,92.3628,13.5843,227.8226,0.00034935,0.00048596,0.0,0 STARLINK-4171,1 52878U 22062BA  22231.66667824  .00048596  00000-0  34935-3 0  9996,2 52878  53.2159  92.3628 0003190  13.5843 227.8226 15.73149831 10444,6728.038000000001,91.536,352.0490000000001,347.75699999999995,0.0
52878.0,STARLINK-4171,PAYLOAD,2022-08-19 22:00:00,15.73179306,0.0003434,53.2158,91.1274,12.6024,205.4574,-0.00010466,-0.00015277,0.0,0 STARLINK-4171,1 52878U 22062BA  22231.91667824 -.00015277  00000-0 -10466-3 0  9999,2 52878  53.2158  91.1274 0003434  12.6024 205.4574 15.73179306  1302,6727.954000000002,91.534,352.13,347.509,0.0
52878.0,STARLINK-4171,PAYLOAD,2022-08-20 08:00:01,15.73147806,0.0003268,53.2158,89.0643,9.234,49.9522,0.000267,0.00036939,0.0,0 STARLINK-4171,1 52878U 22062BA  22232.33334491  .00036939  00000-0  26700-3 0  9991,2 52878  53.2158  89.0643 0003268   9.2340  49.9522 15.73147806 10546,6728.044,91.536,352.108,347.71,0.0
52878.0,STARLINK-4171,PAYLOAD,2022-08-20 14:00:01,15.73163332,0.0003174999999999,53.2158,87.8267,11.1729,24.6698,0.00054825,0.00076922,0.0,0 STARLINK-4171,1 52878U 22062BA  22232.58334491  .00076922  00000-0  54825-3 0  9993,2 52878  53.2158  87.8267 0003175  11.1729  24.6698 15.73163332  1304,6728.0,91.535,352.001,347.72900000000016,0.0
52878.0,STARLINK-4171,PAYLOAD,2022-08-20 22:00:00,15.73195643,0.0003438,53.2156,86.1795,10.0983,114.6491,0.00030858,0.00042909,0.0,0 STARLINK-4171,1 52878U 22062BA  22232.91667824  .00042909  00000-0  30858-3 0  9997,2 52878  53.2156  86.1795 0003438  10.0983 114.6491 15.73195643  1303,6727.908,91.533,352.086,347.46,0.0
52878.0,STARLINK-4171,PAYLOAD,2022-08-21 14:00:01,15.73177674,0.000322,53.2161,82.8783,8.0948,294.5251,0.00041127,0.00057449,0.0,0 STARLINK-4171,1 52878U 22062BA  22233.58334491  .00057449  00000-0  41127-3 0  9998,2 52878  53.2161  82.8783 0003220   8.0948 294.5251 15.73177674  1302,6727.959,91.534,351.99,347.657,0.0
52878.0,STARLINK-4171,PAYLOAD,2022-08-21 22:00:00,15.73205698,0.0003515,53.2162,81.23100000000002,8.4101,23.1438,0.00027404,0.00038031,0.0,0 STARLINK-4171,1 52878U 22062BA  22233.91667824  .00038031  00000-0  27404-3 0  9992,2 52878  53.2162  81.2310 0003515   8.4101  23.1438 15.73205698  1305,6727.879,91.533,352.1090000000001,347.379,0.0
52878.0,STARLINK-4171,PAYLOAD,2022-08-22 12:00:00,15.73241455,0.0003291,53.2158,78.3422,7.6805,89.575,-0.00047079,-0.00066316,0.0,0 STARLINK-4171,1 52878U 22062BA  22234.50001157 -.00066316  00000-0 -47079-3 0  9998,2 52878  53.2158  78.3422 0003291   7.6805  89.5750 15.73241455 10881,6727.776999999999,91.531,351.856,347.42800000000005,0.0
52878.0,STARLINK-4171,PAYLOAD,2022-08-22 22:00:00,15.73156461,0.0003606,53.2158,76.2827,10.2054,288.2215,0.00033368,0.00046392,0.0,0 STARLINK-4171,1 52878U 22062BA  22234.91667824  .00046392  00000-0  33368-3 0  9998,2 52878  53.2158  76.2827 0003606  10.2054 288.2215 15.73156461  1306,6728.019,91.536,352.31,347.458,0.0
52878.0,STARLINK-4171,PAYLOAD,2022-08-23 06:00:00,15.73198954,0.0003488999999999,53.2157,74.6319,10.0619,17.2505,2.9465e-05,3.514e-05,0.0,0 STARLINK-4171,1 52878U 22062BA  22235.25001157  .00003514  00000-0  29465-4 0  9990,2 52878  53.2157  74.6319 0003489  10.0619  17.2505 15.73198954 11000,6727.898,91.533,352.111,347.416,0.0
52878.0,STARLINK-4171,PAYLOAD,2022-08-23 14:00:01,15.73227949,0.000345,53.2161,72.9816,14.3475,101.8744,-0.00053009,-0.00074479,0.0,0 STARLINK-4171,1 52878U 22062BA  22235.58334491 -.00074479  00000-0 -53009-3 0  9996,2 52878  53.2161  72.9816 0003450  14.3475 101.8744 15.73227949  1307,6727.815,91.532,352.00199999999984,347.3590000000001,0.0
52878.0,STARLINK-4171,PAYLOAD,2022-08-23 20:00:01,15.73171894,0.0003733,53.2159,71.7462,15.6472,77.2842,-5.697600000000001e-05,-8.606e-05,0.0,0 STARLINK-4171,1 52878U 22062BA  22235.83334491 -.00008606  00000-0 -56976-4 0  9990,2 52878  53.2159  71.7462 0003733  15.6472  77.2842 15.73171894 11092,6727.975,91.535,352.352,347.329,0.0
52878.0,STARLINK-4171,PAYLOAD,2022-08-23 22:00:01,15.73146122,0.0003812,53.2161,71.3341,15.6874,189.5399,0.0003572,0.00049706,0.0,0 STARLINK-4171,1 52878U 22062BA  22235.91668981  .00049706  00000-0  35720-3 0  9990,2 52878  53.2161  71.3341 0003812  15.6874 189.5399 15.73146122  1304,6728.049,91.536,352.47900000000016,347.349,0.0
52878.0,STARLINK-4171,PAYLOAD,2022-08-24 14:00:01,15.73215686,0.0003593,53.2158,68.0334,17.7252,5.2388,0.00016199,0.00022193,0.0,0 STARLINK-4171,1 52878U 22062BA  22236.58334491  .00022193  00000-0  16199-3 0  9990,2 52878  53.2158  68.0334 0003593  17.7252   5.2388 15.73215686  1308,6727.85,91.532,352.1330000000001,347.298,0.0
52878.0,STARLINK-4171,PAYLOAD,2022-08-24 16:00:00,15.73225372,0.0003661,53.2156,67.6216,17.3458,117.8475,-5.799e-06,-1.439e-05,0.0,0 STARLINK-4171,1 52878U 22062BA  22236.66667824 -.00001439  00000-0 -57990-5 0  9996,2 52878  53.2156  67.6216 0003661  17.3458 117.8475 15.73225372 11222,6727.823,91.532,352.151,347.225,0.0
52878.0,STARLINK-4171,PAYLOAD,2022-08-24 22:00:00,15.732046100000002,0.0003855,53.2155,66.3858,16.8036,95.1127,0.00043366,0.00060712,0.0,0 STARLINK-4171,1 52878U 22062BA  22236.91667824  .00060712  00000-0  43366-3 0  9991,2 52878  53.2155  66.3858 0003855  16.8036  95.1127 15.73204610  1302,6727.882,91.533,352.341,347.153,0.0
52878.0,STARLINK-4171,PAYLOAD,2022-08-25 14:00:01,15.73250182,0.0003605,53.2158,63.0844,16.9225,272.931,-0.00036378,-0.00051496,0.0,0 STARLINK-4171,1 52878U 22062BA  22237.58334491 -.00051496  00000-0 -36378-3 0  9992,2 52878  53.2158  63.0844 0003605  16.9225 272.9310 15.73250182  1302,6727.752,91.53,352.042,347.19199999999995,0.0
52878.0,STARLINK-4171,PAYLOAD,2022-08-25 22:00:00,15.73215419,0.0003898,53.2158,61.4366,14.019,4.8117,0.00018929,0.00026051,0.0,0 STARLINK-4171,1 52878U 22062BA  22237.91667824  .00026051  00000-0  18929-3 0  9997,2 52878  53.2158  61.4366 0003898  14.0190   4.8117 15.73215419 11422,6727.851,91.532,352.339,347.094,0.0
52878.0,STARLINK-4171,PAYLOAD,2022-08-26 06:00:00,15.73203163,0.0003688999999999,53.2156,59.7852,11.6975,96.0948,-0.00020631,-0.00029492,0.0,0 STARLINK-4171,1 52878U 22062BA  22238.25001157 -.00029492  00000-0 -20631-3 0  9993,2 52878  53.2156  59.7852 0003689  11.6975  96.0948 15.73203163 11475,6727.886,91.533,352.233,347.269,0.0
52878.0,STARLINK-4171,PAYLOAD,2022-08-26 14:00:01,15.73206538,0.0003867,53.2174,58.1289,15.6589,181.0436,-1.3937e-05,-2.581e-05,0.0,0 STARLINK-4171,1 52878U 22062BA  22238.58335648 -.00002581  00000-0 -13937-4 0  9996,2 52878  53.2174  58.1289 0003867  15.6589 181.0436 15.73206538 11527,6727.877,91.533,352.343,347.14,0.0
